24903,IRIDIUM 26,1997,100.21,-1.0,-,86.4,Inactive,0,LEO,USA,USA,Unknown,Unknown,Unknown,1 24903U 97043A   25067.22396612  .00000661  00000+0  21644-3 0  9994,2 24903  86.4016 153.0217 0002375  93.3817 266.7652 14.37013788442244,14.37013788,0.0002375,LEO
24907,IRIDIUM 22,1997,100.29,-1.0,-,86.4,Inactive,0,LEO,USA,USA,Unknown,Unknown,Unknown,1 24907U 97043E   25067.27993779  .00000596  00000+0  19913-3 0  9993,2 24907  86.4026 156.4455 0002141  95.2789 264.8652 14.35842433442299,14.35842433,0.0002141,LEO
24925,DUMMY MASS 1,1997,96.85,-1.0,-,86.34,Inactive,0,LEO,PRC,China,Unknown,Unknown,Unknown,1 24925U 97048A   25067.80803946  .00000918  00000+0  99729-4 0  9995,2 24925  86.3415 181.7011 0008318 130.0499 230.1456 14.86843173490454,14.86843173,0.0008318,LEO
24926,DUMMY MASS 2,1997,96.87,-1.0,-,86.34,Inactive,0,LEO,PRC,China,Unknown,Unknown,Unknown,1 24926U 97048B   25067.34962103  .00000883  00000+0  96458-4 0  9993,2 24926  86.3414 183.4993 0008710 141.9390 218.2452 14.86594954490160,14.86594954,0.000871,LEO
24944,IRIDIUM 29,1997,100.26,-1.0,-,86.4,Inactive,0,LEO,Kazakhstan,USA,Unknown,Unknown,Unknown,1 24944U 97051A   25067.26836958  .00000755  00000+0  25165-3 0  9990,2 24944  86.4029 186.1812 0001902  98.7680 261.3732 14.36325041438784,14.36325041,0.0001902,LEO
24946,IRIDIUM 33,1997,100.36,-1.0,-,86.39,Inactive,0,LEO,Kazakhstan,USA,Unknown,Unknown,Unknown,1 24946U 97051C   25067.28016790  .00000568  00000+0  19339-3 0  9996,2 24946  86.3945 185.4289 0009361  57.2287 302.9810 14.34795144438278,14.34795144,0.0009361,LEO
24948,IRIDIUM 28,1997,100.19,-1.0,-,86.4,Inactive,0,LEO,Kazakhstan,USA,Unknown,Unknown,Unknown,1 24948U 97051E   25067.79442849  .00000772  00000+0  25262-3 0  9991,2 24948  86.4036 183.5369 0002448  88.7052 271.4426 14.37258252439493,14.37258252,0.0002448,LEO
24967,IRIDIUM 36,1997,100.18,-1.0,-,86.4,Inactive,0,LEO,USA,USA,Unknown,Unknown,Unknown,1 24967U 97056C   25067.49435656  .00000919  00000+0  30101-3 0  9993,2 24967  86.3988 215.2459 0002004  86.9739 273.1688 14.37457553437753,14.37457553,0.0002004,LEO
